NORAD_CAT_ID,OBJECT_NAME,OBJECT_TYPE,EPOCH,MEAN_MOTION,ECCENTRICITY,INCLINATION,RA_OF_ASC_NODE,ARG_OF_PERICENTER,MEAN_ANOMALY,BSTAR,MEAN_MOTION_DOT,MEAN_MOTION_DDOT,TLE_LINE0,TLE_LINE1,TLE_LINE2,SEMIMAJOR_AXIS,PERIOD,APOGEE,PERIGEE,DECAYED
50166.0,STARLINK-3305,PAYLOAD,2022-05-04 14:00:01,15.08866316,0.0001867,53.2169,76.8819,49.5684,60.4927,-0.002924,-0.00046557,0.0,0 STARLINK-3305,1 50166U 21125L   22124.58334491 -.00046557  00000-0 -29240-2 0  9995,2 50166  53.2169  76.8819 0001867  49.5684  60.4927 15.08866316  3604,6917.8,95.436,540.957,538.373,0.0
50166.0,STARLINK-3305,PAYLOAD,2022-05-04 20:00:01,15.08828474,0.0001781,53.217,75.7591,52.7338,336.0994,0.0026127,0.00041525,0.0,0 STARLINK-3305,1 50166U 21125L   22124.83335648  .00041525  00000-0  26127-2 0  9997,2 50166  53.2170  75.7591 0001781  52.7338 336.0994 15.08828474 21427,6917.916,95.438,541.013,538.549,0.0
50166.0,STARLINK-3305,PAYLOAD,2022-05-04 22:00:01,15.08851141,0.0001797,53.2171,75.3854,52.5841,69.1412,0.00026655,3.958e-05,0.0,0 STARLINK-3305,1 50166U 21125L   22124.91668981  .00003958  00000-0  26655-3 0  9990,2 50166  53.2171  75.3854 0001797  52.5841  69.1412 15.08851141  3606,6917.846,95.437,540.9540000000002,538.4680000000002,0.0
50166.0,STARLINK-3305,PAYLOAD,2022-05-05 06:00:00,15.0884071,0.000192,53.2168,73.8908,45.9575,87.319,-0.00052181,-8.583e-05,0.0,0 STARLINK-3305,1 50166U 21125L   22125.25001157 -.00008583  00000-0 -52181-3 0  9998,2 50166  53.2168  73.8908 0001920  45.9575  87.3190 15.08840710 21484,6917.878000000002,95.438,541.071,538.415,0.0
50166.0,STARLINK-3305,PAYLOAD,2022-05-05 14:00:01,15.08834602,0.0001751,53.2166,72.393,48.8727,95.9979,-0.0002379,-4.072e-05,0.0,0 STARLINK-3305,1 50166U 21125L   22125.58334491 -.00004072  00000-0 -23790-3 0  9997,2 50166  53.2166  72.3930 0001751  48.8727  95.9979 15.08834602  3566,6917.897,95.438,540.9730000000002,538.5509999999998,0.0
50166.0,STARLINK-3305,PAYLOAD,2022-05-05 22:00:00,15.0886144,0.0001704,53.2167,70.8968,51.7291,104.7196,-0.0026797,-0.00042708,0.0,0 STARLINK-3305,1 50166U 21125L   22125.91667824 -.00042708  00000-0 -26797-2 0  9990,2 50166  53.2167  70.8968 0001704  51.7291 104.7196 15.08861440  3568,6917.815,95.436,540.859,538.501,0.0
50166.0,STARLINK-3305,PAYLOAD,2022-05-06 08:00:01,15.08803425,0.0001793,53.216,69.0278,42.9407,218.0101,0.0024582,0.00039012,0.0,0 STARLINK-3305,1 50166U 21125L   22126.33334491  .00039012  00000-0  24582-2 0  9990,2 50166  53.2160  69.0278 0001793  42.9407 218.0101 15.08803425 21647,6917.9919999999975,95.44,541.0980000000002,538.617,0.0
50166.0,STARLINK-3305,PAYLOAD,2022-05-06 14:00:01,15.08823027,0.0001653,53.2162,67.9041,47.8259,131.8005,0.00028377,4.229e-05,0.0,0 STARLINK-3305,1 50166U 21125L   22126.58334491  .00004229  00000-0  28377-3 0  9996,2 50166  53.2162  67.9041 0001653  47.8259 131.8005 15.08823027  3621,6917.932,95.439,540.941,538.654,0.0
50166.0,STARLINK-3305,PAYLOAD,2022-05-07 06:00:02,15.08823217,0.0001841,53.2161,64.9131,44.4495,158.4103,0.0020214,0.00032015,0.0,0 STARLINK-3305,1 50166U 21125L   22127.25002315  .00032015  00000-0  20214-2 0  9993,2 50166  53.2161  64.9131 0001841  44.4495 158.4103 15.08823217 21783,6917.932,95.439,541.07,538.523,0.0
50166.0,STARLINK-3305,PAYLOAD,2022-05-07 14:00:01,15.088266399999998,0.0001641999999999,53.216,63.4149,46.7201,167.6749,-0.00036229,-6.047e-05,0.0,0 STARLINK-3305,1 50166U 21125L   22127.58334491 -.00006047  00000-0 -36229-3 0  9994,2 50166  53.2160  63.4149 0001642  46.7201 167.6749 15.08826640  3606,6917.920999999999,95.438,540.922,538.65,0.0
50166.0,STARLINK-3305,PAYLOAD,2022-05-07 22:00:00,15.08843005,0.0001684,53.2162,61.9189,49.7468,176.2213,-0.0005707999999999,-9.362e-05,0.0,0 STARLINK-3305,1 50166U 21125L   22127.91667824 -.00009362  00000-0 -57080-3 0  9991,2 50166  53.2162  61.9189 0001684  49.7468 176.2213 15.08843005 21885,6917.871,95.437,540.901,538.571,0.0
50166.0,STARLINK-3305,PAYLOAD,2022-05-08 14:00:01,15.08849622,0.0001668,53.2163,58.9256,46.5152,202.6399,-0.0012422,-0.00020009,0.0,0 STARLINK-3305,1 50166U 21125L   22128.58334491 -.00020009  00000-0 -12422-2 0  9997,2 50166  53.2163  58.9256 0001668  46.5152 202.6399 15.08849622  3592,6917.851,95.437,540.87,538.562,0.0
50166.0,STARLINK-3305,PAYLOAD,2022-05-08 22:00:00,15.08846162,0.0001684,53.2165,57.4296,47.4288,213.3243,-0.0012377,-0.00019935,0.0,0 STARLINK-3305,1 50166U 21125L   22128.91667824 -.00019935  00000-0 -12377-2 0  9998,2 50166  53.2165  57.4296 0001684  47.4288 213.3243 15.08846162  3605,6917.861999999999,95.437,540.8919999999998,538.562,0.0
50166.0,STARLINK-3305,PAYLOAD,2022-05-09 06:00:00,15.08814968,0.0001847,53.2164,55.9345,41.5396,230.8135,0.0036152,0.0005767999999999,0.0,0 STARLINK-3305,1 50166U 21125L   22129.25001157  .00057680  00000-0  36152-2 0  9991,2 50166  53.2164  55.9345 0001847  41.5396 230.8135 15.08814968 22084,6917.956999999999,95.439,541.1,538.544,0.0
50166.0,STARLINK-3305,PAYLOAD,2022-05-09 14:00:01,15.08847348,0.0001645,53.2167,54.4362,45.4544,238.5565,-0.00049071,-8.091e-05,0.0,0 STARLINK-3305,1 50166U 21125L   22129.58335648 -.00008091  00000-0 -49071-3 0  9991,2 50166  53.2167  54.4362 0001645  45.4544 238.5565 15.08847348  3601,6917.858,95.437,540.861,538.585,0.0
50166.0,STARLINK-3305,PAYLOAD,2022-05-09 22:00:00,15.08850758,0.0001675,53.217,52.9403,46.0203,249.5338,-0.00066896,-0.00010922,0.0,0 STARLINK-3305,1 50166U 21125L   22129.91667824 -.00010922  00000-0 -66896-3 0  9992,2 50166  53.2170  52.9403 0001675  46.0203 249.5338 15.08850758  3593,6917.848000000001,95.437,540.871,538.554,0.0
50166.0,STARLINK-3305,PAYLOAD,2022-05-10 00:00:00,15.08850117,0.0001739,53.2169,52.5667,43.9738,344.4812,-0.00072437,-0.00011801,0.0,0 STARLINK-3305,1 50166U 21125L   22130.00001157 -.00011801  00000-0 -72437-3 0  9990,2 50166  53.2169  52.5667 0001739  43.9738 344.4812 15.08850117 22209,6917.849,95.437,540.9169999999998,538.511,0.0
50166.0,STARLINK-3305,PAYLOAD,2022-05-10 14:00:01,15.08818869,0.0001761,53.2172,49.9469,49.2681,269.4896,0.0001895,2.727e-05,0.0,0 STARLINK-3305,1 50166U 21125L   22130.58334491  .00002727  00000-0  18950-3 0  9998,2 50166  53.2172  49.9469 0001761  49.2681 269.4896 15.08818869  3591,6917.945,95.439,541.028,538.592,0.0
50166.0,STARLINK-3305,PAYLOAD,2022-05-10 18:00:00,15.08821948,0.0001817,53.2174,49.1984,53.4366,91.1025,-0.00046236,-7.635e-05,0.0,0 STARLINK-3305,1 50166U 21125L   22130.75001157 -.00007635  00000-0 -46236-3 0  9990,2 50166  53.2174  49.1984 0001817  53.4366  91.1025 15.08821948  3581,6917.936,95.439,541.058,538.544,0.0
50166.0,STARLINK-3305,PAYLOAD,2022-05-11 22:00:00,15.0884983,0.0001917,53.2177,43.9624,53.5525,311.4748,-0.0012072,-0.00019455,0.0,0 STARLINK-3305,1 50166U 21125L   22131.91667824 -.00019455  00000-0 -12072-2 0  9991,2 50166  53.2177  43.9624 0001917  53.5525 311.4748 15.08849830 22497,6917.85,95.437,541.0409999999998,538.389,0.0
50166.0,STARLINK-3305,PAYLOAD,2022-05-12 14:00:01,15.08843493,0.0001781,53.2174,40.9688,55.6811,332.5592,0.001735,0.00027435,0.0,0 STARLINK-3305,1 50166U 21125L   22132.58334491  .00027435  00000-0  17350-2 0  9995,2 50166  53.2174  40.9688 0001781  55.6811 332.5592 15.08843493  1308,6917.87,95.437,540.967,538.503,0.0
50166.0,STARLINK-3305,PAYLOAD,2022-05-12 20:00:01,15.08872985,0.0001789,53.2176,39.8471,56.5141,250.43,-0.0021527,-0.00034416,0.0,0 STARLINK-3305,1 50166U 21125L   22132.83334491 -.00034416  00000-0 -21527-2 0  9993,2 50166  53.2176  39.8471 0001789  56.5141 250.4300 15.08872985 22622,6917.78,95.435,540.882,538.4069999999998,0.0
50166.0,STARLINK-3305,PAYLOAD,2022-05-12 22:00:00,15.08862485,0.0001822,53.2175,39.4736,54.1635,345.6898,-0.0015167,-0.0002436,0.0,0 STARLINK-3305,1 50166U 21125L   22132.91667824 -.00024360  00000-0 -15167-2 0  9991,2 50166  53.2175  39.4736 0001822  54.1635 345.6898 15.08862485  1306,6917.812,95.436,540.937,538.4159999999998,0.0
50166.0,STARLINK-3305,PAYLOAD,2022-05-13 14:00:01,15.08824558,0.0001698,53.2171,36.4798,55.2064,7.869,0.00069624,0.00010805,0.0,0 STARLINK-3305,1 50166U 21125L   22133.58334491  .00010805  00000-0  69624-3 0  9991,2 50166  53.2171  36.4798 0001698  55.2064   7.8690 15.08824558 22743,6917.928000000001,95.439,540.967,538.618,0.0
50166.0,STARLINK-3305,PAYLOAD,2022-05-13 22:00:00,15.08832509,0.0001888,53.2173,34.9849,55.8185,18.8377,-0.0016971,-0.00027191,0.0,0 STARLINK-3305,1 50166U 21125L   22133.91667824 -.00027191  00000-0 -16971-2 0  9991,2 50166  53.2173  34.9849 0001888  55.8185  18.8377 15.08832509  1304,6917.903,95.438,541.0740000000002,538.462,0.0
50166.0,STARLINK-3305,PAYLOAD,2022-05-14 14:00:01,15.08820829,0.0001805,53.2169,31.991,58.4368,39.3921,0.0038335,0.00061221,0.0,0 STARLINK-3305,1 50166U 21125L   22134.58334491  .00061221  00000-0  38335-2 0  9994,2 50166  53.2169  31.9910 0001805  58.4368  39.3921 15.08820829  1301,6917.939,95.439,541.053,538.555,0.0
50166.0,STARLINK-3305,PAYLOAD,2022-05-14 16:00:00,15.08835951,0.0001835,53.2169,31.6169,60.2763,130.4462,0.0029765,0.00047397,0.0,0 STARLINK-3305,1 50166U 21125L   22134.66667824  .00047397  00000-0  29765-2 0  9997,2 50166  53.2169  31.6169 0001835  60.2763 130.4462 15.08835951 22901,6917.893,95.438,541.0269999999998,538.488,0.0
50166.0,STARLINK-3305,PAYLOAD,2022-05-14 22:00:00,15.08868924,0.0001937,53.217,30.4961,56.2516,53.1705,-0.00081447,-0.00013238,0.0,0 STARLINK-3305,1 50166U 21125L   22134.91667824 -.00013238  00000-0 -81447-3 0  9990,2 50166  53.2170  30.4961 0001937  56.2516  53.1705 15.08868924  1302,6917.792,95.436,540.997,538.317,0.0
50166.0,STARLINK-3305,PAYLOAD,2022-05-15 06:00:00,15.08831506,0.000187,53.2167,29.0001,49.28,71.7411,0.0014611,0.00023037,0.0,0 STARLINK-3305,1 50166U 21125L   22135.25001157  .00023037  00000-0  14611-2 0  9993,2 50166  53.2167  29.0001 0001870  49.2800  71.7411 15.08831506 22995,6917.906,95.438,541.065,538.4780000000002,0.0
